CUBEBUG-2 (LO-74)       
1 39440U 13066AA  26192.77934956  .00001818  00000+0  17141-3 0  9990
2 39440  97.8908 141.8662 0056009 306.9645  52.6454 14.93953180680669
FUNCUBE-1 (AO-73)       
1 39444U 13066AE  26191.98474831  .00004079  00000+0  25254-3 0  9993
2 39444  97.8286 163.9335 0037927 121.2536 239.2417 15.09785992683251
UWE-3                   
1 39446U 13066AG  26192.34365258  .00001839  00000+0  16088-3 0  9994
2 39446  97.8697 148.5848 0047530 237.9674 121.6926 14.97184048681197
UNISAT-6                
1 40012U 14033C   26192.74007664  .00001225  00000+0  13609-3 0  9993
2 40012  97.7904 345.0249 0044463 349.3063  10.7204 14.88357777649810
DUCHIFAT-1              
1 40021U 14033M   26192.41130691  .00099078  00000+0  80962-3 0  9993
2 40021  98.0442 255.0791 0002054 250.9446 109.1592 15.70259500659546
QB50P1                  
1 40025U 14033R   26192.59831495  .00004893  00000+0  23978-3 0  9991
2 40025  98.0966 205.4618 0010171 135.5063 224.6988 15.18630813656732
LILACSAT-2              
1 40908U 15049K   26192.64622513  .00012020  00000+0  19924-3 0  9991
2 40908  97.4632 230.4265 0008161 151.9388 208.2306 15.52271449599540
FOX-1A (AO-85)          
1 40967U 15058D   26192.02911054  .00001601  00000+0  15193-3 0  9996
2 40967  64.7731 204.8837 0132046  47.3799 313.8357 14.91072604117129
CAS-2T & KS-1Q          
1 41847U 16066G   26192.75774159  .00000636  00000+0  97188-4 0  9999
2 41847  98.3814 268.2128 0342420  55.1696 308.1201 14.44765752508345
RADFXSAT (FOX-1B)       
1 43017U 17073E   26192.61392611  .00003594  00000+0  15873-3 0  9999
2 43017  97.4679  59.3312 0148069 243.9569 114.6355 15.13032289469084
DIWATA-2B               
1 43678U 18084H   26192.77679069  .00001502  00000+0  12410-3 0  9998
2 43678  98.1221  30.0616 0013006  94.9253 265.3455 15.00555767419905
ES'HAIL 2               
1 43700U 18090A   26192.64136420  .00000000  00000+0  00000+0 0  9996
2 43700   0.0269  40.7392 0002185 119.2299  26.2668  1.00269367 27921
FOX-1CLIFF (AO-95)      
1 43770U 18099N   26192.12777210  .00006872  00000+0  26022-3 0  9992
2 43770  97.4378 252.2917 0007010 257.0089 103.0367 15.27218021416873
ITASAT                  
1 43786U 18099AE  26192.72136529  .00003539  00000+0  17043-3 0  9997
2 43786  97.4021 243.7457 0010794 264.3546  95.6458 15.19355375416637
JY1SAT (JO-97)          
1 43803U 18099AX  26192.68722269  .00009972  00000+0  30109-3 0  9999
2 43803  97.4124 255.6172 0006517 168.9842 191.1545 15.34443331417382
UWE-4                   
1 43880U 18111E   26190.27481266  .00027640  00000+0  53768-3 0  9999
2 43880  97.5841 119.7053 0005270 218.3666 141.7210 15.47549208414191
TIANYAN 01              
1 44881U 19093C   26192.74813978  .00000560  00000+0  69174-4 0  9995
2 44881  97.7523 264.3803 0013870  12.5804 347.5755 14.86556950355069
RS-44 & BREEZE-KM R/B   
1 44909U 19096E   26192.78847947 -.00000003  00000+0 -62741-4 0  9993
2 44909  82.5240 323.3575 0218564  86.9189 275.6896 12.79748964305495
SALSAT                  
1 46495U 20068K   26192.54062004  .00004447  00000+0  15528-3 0  9997
2 46495  97.8855 197.0941 0008823 206.5203 153.5586 15.30139435319080
XW-3 (CAS-9)            
1 50466U 21131B   26192.76764339  .00000438  00000+0  14871-3 0  9992
2 50466  98.4983 285.0250 0004819  39.4262 320.7277 14.41380720238656
GREENCUBE (IO-117)      
1 53109U 22080E   26192.30794326 -.00000003  00000+0  00000+0 0  9996
2 53109  70.1420 289.8580 0009046 284.3679  75.5976  6.42583311 93613
UMKA 1 (RS40S)          
1 57172U 23091G   26192.76515080  .00003676  00000+0  16813-3 0  9992
2 57172  97.5042 251.3700 0013368  40.8300 319.3934 15.21097564167742
CUBESX-HSE 3 (RS42S)    
1 57178U 23091N   26192.60970521  .00007633  00000+0  25062-3 0  9999
2 57178  97.5086 258.5135 0010041  14.9180 345.2356 15.31827489168161
MONITOR-3 (RS58S)       
1 57180U 23091Q   26192.75451173  .00005950  00000+0  21805-3 0  9996
2 57180  97.5078 256.3866 0011377  21.6492 338.5226 15.28329902168047
MONITOR-4 (RS57S)       
1 57182U 23091S   26192.73220201  .00006186  00000+0  22599-3 0  9995
2 57182  97.5072 256.3366 0011385  22.1625 338.0104 15.28416065168048
MONITOR-2 (RS39S)       
1 57184U 23091U   26192.75181463  .00002685  00000+0  13093-3 0  9994
2 57184  97.5063 250.8771 0011722  35.2652 324.9356 15.19134778167689
SVYATOBOR 1 (RS60S)     
1 57187U 23091X   26192.76698847  .00005042  00000+0  19280-3 0  9991
2 57187  97.5082 256.7245 0009088  16.5782 343.5752 15.27026955168068
VIZARD-METEO (RS38S)    
1 57189U 23091Z   26192.76623369  .00009515  00000+0  26671-3 0  9991
2 57189  97.5087 262.7553 0005965 353.7696   6.3473 15.36803253168466
POLYTECH-UNIVERSE 3 (R*)
1 57191U 23091AB  26192.77567882  .00003071  00000+0  14814-3 0  9999
2 57191  97.5039 250.4050 0016384  48.9305 311.3342 15.19346745167685
UTMN 2 (RS27S)          
1 57203U 23091AP  26192.74468921  .00007380  00000+0  23647-3 0  9995
2 57203  97.5082 260.3140 0007085   3.2002 356.9283 15.32648268168302
