OBJECT_NAME,OBJECT_ID,EPOCH,MEAN_MOTION,ECCENTRICITY,INCLINATION,RA_OF_ASC_NODE,ARG_OF_PERICENTER,MEAN_ANOMALY,EPHEMERIS_TYPE,CLASSIFICATION_TYPE,NORAD_CAT_ID,ELEMENT_SET_NO,REV_AT_EPOCH,BSTAR,MEAN_MOTION_DOT,MEAN_MOTION_DDOT
CUBEBUG-2 (LO-74),2013-066AA,2026-07-11T18:42:15.801984,14.93953180,.00560097,97.8908,141.8662,306.9645,52.6454,0,U,39440,999,68066,.17141254E-3,.1818E-4,0
FUNCUBE-1 (AO-73),2013-066AE,2026-07-10T23:38:02.253984,15.09785992,.00379273,97.8286,163.9335,121.2536,239.2417,0,U,39444,999,68325,.25253624E-3,.4079E-4,0
UWE-3,2013-066AG,2026-07-11T08:14:51.582912,14.97184048,.00475303,97.8697,148.5848,237.9674,121.6926,0,U,39446,999,68119,.16087704E-3,.1839E-4,0
UNISAT-6,2014-033C,2026-07-11T17:45:42.621696,14.88357777,.00444634,97.7904,345.0249,349.3063,10.7204,0,U,40012,999,64981,.13609319E-3,.1225E-4,0
DUCHIFAT-1,2014-033M,2026-07-11T09:52:16.917024,15.70259500,.00020545,98.0442,255.0791,250.9446,109.1592,0,U,40021,999,65954,.80962005E-3,.99078E-3,0
QB50P1,2014-033R,2026-07-11T14:21:34.411680,15.18630813,.00101716,98.0966,205.4618,135.5063,224.6988,0,U,40025,999,65673,.23977545E-3,.4893E-4,0
LILACSAT-2,2015-049K,2026-07-11T15:30:33.851232,15.52271449,.00081613,97.4632,230.4265,151.9388,208.2306,0,U,40908,999,59954,.19924205E-3,.1202E-3,0
FOX-1A (AO-85),2015-058D,2026-07-11T00:41:55.150656,14.91072604,.01320462,64.7731,204.8837,47.3799,313.8357,0,U,40967,999,11712,.15192539E-3,.1601E-4,0
CAS-2T & KS-1Q,2016-066G,2026-07-11T18:11:08.873376,14.44765752,.03424202,98.3814,268.2128,55.1696,308.1201,0,U,41847,999,50834,.9718848E-4,.636E-5,0
RADFXSAT (FOX-1B),2017-073E,2026-07-11T14:44:03.215904,15.13032289,.01480691,97.4679,59.3312,243.9569,114.6355,0,U,43017,999,46908,.15872886E-3,.3594E-4,0
DIWATA-2B,2018-084H,2026-07-11T18:38:34.715616,15.00555767,.00130065,98.1221,30.0616,94.9253,265.3455,0,U,43678,999,41990,.12409727E-3,.1502E-4,0
ES'HAIL 2,2018-090A,2026-07-11T15:23:33.866880,1.00269367,.00021851,0.0269,40.7392,119.2299,26.2668,0,U,43700,999,2792,0,0,0
FOX-1CLIFF (AO-95),2018-099N,2026-07-11T03:03:59.509440,15.27218021,.00070107,97.4378,252.2917,257.0089,103.0367,0,U,43770,999,41687,.26022065E-3,.6872E-4,0
ITASAT,2018-099AE,2026-07-11T17:18:45.961056,15.19355375,.0010794,97.4021,243.7457,264.3546,95.6458,0,U,43786,999,41663,.17042883E-3,.3539E-4,0
JY1SAT (JO-97),2018-099AX,2026-07-11T16:29:36.040416,15.34443331,.00065178,97.4124,255.6172,168.9842,191.1545,0,U,43803,999,41738,.301087E-3,.9972E-4,0
UWE-4,2018-111E,2026-07-09T06:35:43.813824,15.47549208,.00052707,97.5841,119.7053,218.3666,141.7210,0,U,43880,999,41419,.53767723E-3,.2764E-3,0
TIANYAN 01,2019-093C,2026-07-11T17:57:19.276992,14.86556950,.001387,97.7523,264.3803,12.5804,347.5755,0,U,44881,999,35506,.69174465E-4,.56E-5,0
RS-44 & BREEZE-KM R/B,2019-096E,2026-07-11T18:55:24.626208,12.79748964,.02185643,82.5240,323.3575,86.9189,275.6896,0,U,44909,999,30549,-.62740905E-4,-.3E-7,0
SALSAT,2020-068K,2026-07-11T12:58:29.571456,15.30139435,.00088233,97.8855,197.0941,206.5203,153.5586,0,U,46495,999,31908,.15528118E-3,.4447E-4,0
XW-3 (CAS-9),2021-131B,2026-07-11T18:25:24.388896,14.41380720,.00048198,98.4983,285.0250,39.4262,320.7277,0,U,50466,999,23865,.1487137E-3,.438E-5,0
GREENCUBE (IO-117),2022-080E,2026-07-11T07:23:26.297664,6.42583311,.0009046,70.1420,289.8580,284.3679,75.5976,0,U,53109,999,9361,0,-.3E-7,0
UMKA 1 (RS40S),2023-091G,2026-07-11T18:21:49.029120,15.21097564,.00133681,97.5042,251.3700,40.8300,319.3934,0,U,57172,999,16774,.1681311E-3,.3676E-4,0
CUBESX-HSE 3 (RS42S),2023-091N,2026-07-11T14:37:58.530144,15.31827489,.00100413,97.5086,258.5135,14.9180,345.2356,0,U,57178,999,16816,.25061514E-3,.7633E-4,0
MONITOR-3 (RS58S),2023-091Q,2026-07-11T18:06:29.813472,15.28329902,.00113774,97.5078,256.3866,21.6492,338.5226,0,U,57180,999,16804,.21805203E-3,.595E-4,0
MONITOR-4 (RS57S),2023-091S,2026-07-11T17:34:22.253664,15.28416065,.00113855,97.5072,256.3366,22.1625,338.0104,0,U,57182,999,16804,.22599336E-3,.6186E-4,0
MONITOR-2 (RS39S),2023-091U,2026-07-11T18:02:36.784032,15.19134778,.00117229,97.5063,250.8771,35.2652,324.9356,0,U,57184,999,16768,.13093243E-3,.2685E-4,0
SVYATOBOR 1 (RS60S),2023-091X,2026-07-11T18:24:27.803808,15.27026955,.00090881,97.5082,256.7245,16.5782,343.5752,0,U,57187,999,16806,.19279723E-3,.5042E-4,0
VIZARD-METEO (RS38S),2023-091Z,2026-07-11T18:23:22.590816,15.36803253,.00059653,97.5087,262.7553,353.7696,6.3473,0,U,57189,999,16846,.26670703E-3,.9515E-4,0
POLYTECH-UNIVERSE 3 (RS46S),2023-091AB,2026-07-11T18:36:58.650048,15.19346745,.00163848,97.5039,250.4050,48.9305,311.3342,0,U,57191,999,16768,.14814419E-3,.3071E-4,0
UTMN 2 (RS27S),2023-091AP,2026-07-11T17:52:21.147744,15.32648268,.00070859,97.5082,260.3140,3.2002,356.9283,0,U,57203,999,16830,.23646853E-3,.738E-4,0
